[
    {
        "Altitude(m)": 567349.5911191166,
        "Argument of Periapsis(deg)": 0.013245982221427002,
        "Eccentricity": 0.0,
        "Inclination(deg)": 53.0,
        "Latitude(deg)": -41.9895646547923,
        "Longitude(deg)": -14.157575713403208,
        "Mean Anomaly(deg)": -123.45311426484481,
        "RAAN(deg)": 224.98028673705605,
        "Satellite Name": "Starlink Shell 1 1003",
        "Satellite Number": 1003,
        "Semi-Major Axis(m)": 6931778.249405717,
        "Time(s)": 380
    },
    {
        "Altitude(m)": 567501.2729272773,
        "Argument of Periapsis(deg)": 0.013594560700938237,
        "Eccentricity": 0.0,
        "Inclination(deg)": 53.0,
        "Latitude(deg)": -42.356899765468924,
        "Longitude(deg)": -13.517188905695269,
        "Mean Anomaly(deg)": -122.82628306128817,
        "RAAN(deg)": 224.97976796697856,
        "Satellite Name": "Starlink Shell 1 1003",
        "Satellite Number": 1003,
        "Semi-Major Axis(m)": 6931778.249405717,
        "Time(s)": 390
    },
    {
        "Altitude(m)": 567651.1940166468,
        "Argument of Periapsis(deg)": 0.013943139180449475,
        "Eccentricity": 0.0,
        "Inclination(deg)": 53.0,
        "Latitude(deg)": -42.720104629581364,
        "Longitude(deg)": -12.868882688276345,
        "Mean Anomaly(deg)": -122.1994518577314,
        "RAAN(deg)": 224.97924919690107,
        "Satellite Name": "Starlink Shell 1 1003",
        "Satellite Number": 1003,
        "Semi-Major Axis(m)": 6931778.249405717,
        "Time(s)": 400
    },
    {
        "Altitude(m)": 567799.295613273,
        "Argument of Periapsis(deg)": 0.014291717659960712,
        "Eccentricity": 0.0,
        "Inclination(deg)": 53.0,
        "Latitude(deg)": -43.07907974316246,
        "Longitude(deg)": -12.212554274691,
        "Mean Anomaly(deg)": -121.57262065417466,
        "RAAN(deg)": 224.9787304268236,
        "Satellite Name": "Starlink Shell 1 1003",
        "Satellite Number": 1003,
        "Semi-Major Axis(m)": 6931778.249405717,
        "Time(s)": 410
    },
    {
        "Altitude(m)": 567945.5196067565,
        "Argument of Periapsis(deg)": 0.014640296139471948,
        "Eccentricity": 0.0,
        "Inclination(deg)": 53.0,
        "Latitude(deg)": -43.43372379986592,
        "Longitude(deg)": -11.548104653101266,
        "Mean Anomaly(deg)": -120.94578945061801,
        "RAAN(deg)": 224.97821165674614,
        "Satellite Name": "Starlink Shell 1 1003",
        "Satellite Number": 1003,
        "Semi-Major Axis(m)": 6931778.249405717,
        "Time(s)": 420
    },
    {
        "Altitude(m)": 568089.8085759253,
        "Argument of Periapsis(deg)": 0.014988874618983185,
        "Eccentricity": 0.0,
        "Inclination(deg)": 53.0,
        "Latitude(deg)": -43.78393371122513,
        "Longitude(deg)": -10.875438452523134,
        "Mean Anomaly(deg)": -120.31895824706132,
        "RAAN(deg)": 224.97769288666865,
        "Satellite Name": "Starlink Shell 1 1003",
        "Satellite Number": 1003,
        "Semi-Major Axis(m)": 6931778.249405717,
        "Time(s)": 430
    },
    {
        "Altitude(m)": 568232.105814126,
        "Argument of Periapsis(deg)": 0.015337453098494424,
        "Eccentricity": 0.0,
        "Inclination(deg)": 53.0,
        "Latitude(deg)": -44.12960463272834,
        "Longitude(deg)": -10.194463827333433,
        "Mean Anomaly(deg)": -119.69212704350457,
        "RAAN(deg)": 224.9771741165912,
        "Satellite Name": "Starlink Shell 1 1003",
        "Satellite Number": 1003,
        "Semi-Major Axis(m)": 6931778.249405717,
        "Time(s)": 440
    },
    {
        "Altitude(m)": 568372.3553542163,
        "Argument of Periapsis(deg)": 0.01568603157800566,
        "Eccentricity": 0.0,
        "Inclination(deg)": 53.0,
        "Latitude(deg)": -44.47062999611733,
        "Longitude(deg)": -9.50509387278933,
        "Mean Anomaly(deg)": -119.06529583994782,
        "RAAN(deg)": 224.97665534651375,
        "Satellite Name": "Starlink Shell 1 1003",
        "Satellite Number": 1003,
        "Semi-Major Axis(m)": 6931778.249405717,
        "Time(s)": 450
    },
    {
        "Altitude(m)": 568510.5019932028,
        "Argument of Periapsis(deg)": 0.0160346100575169,
        "Eccentricity": 0.0,
        "Inclination(deg)": 53.0,
        "Latitude(deg)": -44.80690154831568,
        "Longitude(deg)": -8.80724654554325,
        "Mean Anomaly(deg)": -118.43846463639113,
        "RAAN(deg)": 224.97613657643623,
        "Satellite Name": "Starlink Shell 1 1003",
        "Satellite Number": 1003,
        "Semi-Major Axis(m)": 6931778.249405717,
        "Time(s)": 460
    },
    {
        "Altitude(m)": 568646.4913165601,
        "Argument of Periapsis(deg)": 0.016383188537028134,
        "Eccentricity": 0.0,
        "Inclination(deg)": 53.0,
        "Latitude(deg)": -45.13830939740409,
        "Longitude(deg)": -8.100844601606058,
        "Mean Anomaly(deg)": -117.81163343283438,
        "RAAN(deg)": 224.9756178063588,
        "Satellite Name": "Starlink Shell 1 1003",
        "Satellite Number": 1003,
        "Semi-Major Axis(m)": 6931778.249405717,
        "Time(s)": 470
    },
    {
        "Altitude(m)": 568780.2697221248,
        "Argument of Periapsis(deg)": 0.01673176701653937,
        "Eccentricity": 0.0,
        "Inclination(deg)": 53.0,
        "Latitude(deg)": -45.464742066062456,
        "Longitude(deg)": -7.385817064043242,
        "Mean Anomaly(deg)": -117.18480222927764,
        "RAAN(deg)": 224.97509903628128,
        "Satellite Name": "Starlink Shell 1 1003",
        "Satellite Number": 1003,
        "Semi-Major Axis(m)": 6931778.249405717,
        "Time(s)": 480
    },
    {
        "Altitude(m)": 568911.7844436889,
        "Argument of Periapsis(deg)": 0.017080345496050607,
        "Eccentricity": 0.0,
        "Inclination(deg)": 53.0,
        "Latitude(deg)": -45.78608655288906,
        "Longitude(deg)": -6.662099193877555,
        "Mean Anomaly(deg)": -116.55797102572097,
        "RAAN(deg)": 224.97458026620384,
        "Satellite Name": "Starlink Shell 1 1003",
        "Satellite Number": 1003,
        "Semi-Major Axis(m)": 6931778.249405717,
        "Time(s)": 490
    },
    {
        "Altitude(m)": 569040.9835741427,
        "Argument of Periapsis(deg)": 0.017428923975561842,
        "Eccentricity": 0.0,
        "Inclination(deg)": 53.0,
        "Latitude(deg)": -46.10222840200899,
        "Longitude(deg)": -5.929632476098793,
        "Mean Anomaly(deg)": -115.93113982216418,
        "RAAN(deg)": 224.97406149612635,
        "Satellite Name": "Starlink Shell 1 1003",
        "Satellite Number": 1003,
        "Semi-Major Axis(m)": 6931778.249405717,
        "Time(s)": 500
    },
    {
        "Altitude(m)": 569167.8160883033,
        "Argument of Periapsis(deg)": 0.01777750245507308,
        "Eccentricity": 0.0,
        "Inclination(deg)": 53.0,
        "Latitude(deg)": -46.413051781374996,
        "Longitude(deg)": -5.188366132461858,
        "Mean Anomaly(deg)": -115.30430861860744,
        "RAAN(deg)": 224.9735427260489,
        "Satellite Name": "Starlink Shell 1 1003",
        "Satellite Number": 1003,
        "Semi-Major Axis(m)": 6931778.249405717,
        "Time(s)": 510
    },
    {
        "Altitude(m)": 569292.2318652432,
        "Argument of Periapsis(deg)": 0.018126080934584315,
        "Eccentricity": 0.0,
        "Inclination(deg)": 53.0,
        "Latitude(deg)": -46.71843957014282,
        "Longitude(deg)": -4.438257133901838,
        "Mean Anomaly(deg)": -114.6774774150508,
        "RAAN(deg)": 224.9730239559714,
        "Satellite Name": "Starlink Shell 1 1003",
        "Satellite Number": 1003,
        "Semi-Major Axis(m)": 6931778.249405717,
        "Time(s)": 520
    },
    {
        "Altitude(m)": 569414.1817103227,
        "Argument of Periapsis(deg)": 0.018474659414095554,
        "Eccentricity": 0.0,
        "Inclination(deg)": 53.0,
        "Latitude(deg)": -47.01827345549114,
        "Longitude(deg)": -3.679270223771017,
        "Mean Anomaly(deg)": -114.05064621149414,
        "RAAN(deg)": 224.97250518589394,
        "Satellite Name": "Starlink Shell 1 1003",
        "Satellite Number": 1003,
        "Semi-Major Axis(m)": 6931778.249405717,
        "Time(s)": 530
    },
    {
        "Altitude(m)": 569533.6173766974,
        "Argument of Periapsis(deg)": 0.018823237893606792,
        "Eccentricity": 0.0,
        "Inclination(deg)": 53.0,
        "Latitude(deg)": -47.312434039232926,
        "Longitude(deg)": -2.9113794628477043,
        "Mean Anomaly(deg)": -113.42381500793739,
        "RAAN(deg)": 224.97198641581647,
        "Satellite Name": "Starlink Shell 1 1003",
        "Satellite Number": 1003,
        "Semi-Major Axis(m)": 6931778.249405717,
        "Time(s)": 540
    },
    {
        "Altitude(m)": 569650.4915864735,
        "Argument of Periapsis(deg)": 0.019171816373118027,
        "Eccentricity": 0.0,
        "Inclination(deg)": 53.0,
        "Latitude(deg)": -47.60080095452708,
        "Longitude(deg)": -2.134568268170643,
        "Mean Anomaly(deg)": -112.7969838043806,
        "RAAN(deg)": 224.97146764573898,
        "Satellite Name": "Starlink Shell 1 1003",
        "Satellite Number": 1003,
        "Semi-Major Axis(m)": 6931778.249405717,
        "Time(s)": 550
    },
    {
        "Altitude(m)": 569764.7580513849,
        "Argument of Periapsis(deg)": 0.019520394852629266,
        "Eccentricity": 0.0,
        "Inclination(deg)": 53.0,
        "Latitude(deg)": -47.88325299297164,
        "Longitude(deg)": -1.3488294561003145,
        "Mean Anomaly(deg)": -112.17015260082395,
        "RAAN(deg)": 224.97094887566152,
        "Satellite Name": "Starlink Shell 1 1003",
        "Satellite Number": 1003,
        "Semi-Major Axis(m)": 6931778.249405717,
        "Time(s)": 560
    }
]